OBJECT_NAME,OBJECT_ID,EPOCH,MEAN_MOTION,ECCENTRICITY,INCLINATION,RA_OF_ASC_NODE,ARG_OF_PERICENTER,MEAN_ANOMALY,EPHEMERIS_TYPE,CLASSIFICATION_TYPE,NORAD_CAT_ID,ELEMENT_SET_NO,REV_AT_EPOCH,BSTAR,MEAN_MOTION_DOT,MEAN_MOTION_DDOT
CUBEBUG-2 (LO-74),2013-066AA,2026-06-10T02:18:58.118400,14.93705686,.00590877,97.8902,110.0449,51.9853,308.6680,0,U,39440,999,67593,.32201289E-3,.3464E-4,0
FUNCUBE-1 (AO-73),2013-066AE,2026-06-10T11:50:58.195104,15.09407831,.0034999,97.8263,132.7998,224.2393,135.6036,0,U,39444,999,67865,.31555E-3,.5047E-4,0
UWE-3,2013-066AG,2026-06-10T03:07:52.062816,14.96967920,.00486625,97.8685,117.1571,344.7844,15.1910,0,U,39446,999,67652,.3417145E-3,.3961E-4,0
UNISAT-6,2014-033C,2026-06-10T08:13:14.687040,14.88209392,.0046427,97.7868,314.1760,91.2128,269.4408,0,U,40012,999,64514,.26042E-3,.2394E-4,0
DUCHIFAT-1,2014-033M,2026-06-10T10:21:09.914400,15.63249626,.0004198,98.0468,219.6499,126.9864,233.1777,0,U,40021,999,65469,.10616E-2,.98092E-3,0
QB50P1,2014-033R,2026-06-10T11:50:24.309024,15.18159274,.000723,98.0971,172.1703,241.8830,118.1672,0,U,40025,999,65201,.36199E-3,.7323E-4,0
LILACSAT-2,2015-049K,2026-06-10T13:32:09.010752,15.51225431,.0005285,97.4660,198.1544,277.2161,82.8490,0,U,40908,999,59472,.2709E-3,.15772E-3,0
FOX-1A (AO-85),2015-058D,2026-06-10T12:15:40.019040,14.90937275,.0130049,64.7757,299.7308,59.2041,302.1796,0,U,40967,999,11257,.21272E-3,.2296E-4,0
CAS-2T & KS-1Q,2016-066G,2026-06-10T10:52:16.472352,14.44671796,.0342567,98.3822,237.2661,149.8520,212.2884,0,U,41847,999,50382,.21974E-3,.1515E-4,0
RADFXSAT (FOX-1B),2017-073E,2026-06-09T14:25:08.794272,15.12592571,.01506991,97.4720,27.9710,355.5385,4.4491,0,U,43017,999,46424,.33267068E-3,.7602E-4,0
DIWATA-2B,2018-084H,2026-06-10T12:01:28.979904,15.00420141,.0012147,98.1177,357.4195,192.0356,168.0578,0,U,43678,999,41521,.18058E-3,.2208E-4,0
ES'HAIL 2,2018-090A,2026-06-10T06:34:09.954048,1.00273901,.0001901,0.0130,295.1016,185.1228,262.7748,0,U,43700,999,2760,0,.162E-5,0
FOX-1CLIFF (AO-95),2018-099N,2026-06-09T17:40:40.880928,15.26553683,.0008751,97.4390,221.0109,24.8412,335.3246,0,U,43770,999,41208,.4088E-3,.10631E-3,0
ITASAT,2018-099AE,2026-06-10T07:15:37.491264,15.18970169,.0012847,97.4034,212.9518,24.1662,336.0173,0,U,43786,999,41186,.31057E-3,.644E-4,0
JY1SAT (JO-97),2018-099AX,2026-06-10T10:33:54.696096,15.33439241,.0004138,97.4136,224.2518,295.7294,64.3520,0,U,43803,999,41259,.49534E-3,.15949E-3,0
UWE-4,2018-111E,2026-06-10T00:43:32.539872,15.45678034,.00069041,97.5850,89.0931,11.8229,348.3181,0,U,43880,999,40967,.71452966E-3,.34515E-3,0
TIANYAN 01,2019-093C,2026-06-10T12:22:10.809696,14.86510103,.0014983,97.7530,233.9102,106.4355,253.8508,0,U,44881,999,35042,.92842E-4,.769E-5,0
RS-44 & BREEZE-KM R/B,2019-096E,2026-06-10T12:23:13.201728,12.79748702,.0217871,82.5217,344.1388,159.7203,201.2721,0,U,44909,999,30149,.85775E-4,.34E-6,0
SALSAT,2020-068K,2026-06-10T06:39:18.129024,15.29700288,.0008649,97.8853,163.9217,336.5873,23.4971,0,U,46495,999,31430,.26695E-3,.7605E-4,0
XW-3 (CAS-9),2021-131B,2026-06-10T12:42:02.338272,14.41351517,.0005273,98.4971,253.9549,112.2169,247.9580,0,U,50466,999,23415,.13391E-3,.389E-5,0
GREENCUBE (IO-117),2022-080E,2026-06-01T11:09:37.753056,6.42583280,.00088692,70.1435,303.7143,293.3663,66.6064,0,U,53109,999,9105,0,-.3E-7,0
UMKA 1 (RS40S),2023-091G,2026-06-10T10:45:37.167840,15.20739099,.0013941,97.5057,220.1716,138.7609,221.4682,0,U,57172,999,16298,.26679E-3,.5816E-4,0
CUBESX-HSE 3 (RS42S),2023-091N,2026-06-10T10:37:09.186816,15.31043247,.0012154,97.5097,226.9450,115.3998,244.8502,0,U,57178,999,16339,.41201E-3,.12311E-3,0
MONITOR-3 (RS58S),2023-091Q,2026-06-10T10:51:05.854176,15.27704917,.0013059,97.5090,224.8493,121.5687,238.6829,0,U,57180,999,16326,.3866E-3,.1042E-3,0
MONITOR-4 (RS57S),2023-091S,2026-06-10T11:55:48.243360,15.27797175,.0013068,97.5083,224.8653,121.8033,238.4481,0,U,57182,999,16327,.32754E-3,.8839E-4,0
MONITOR-2 (RS39S),2023-091U,2026-06-10T11:04:05.792160,15.18846682,.0012486,97.5079,219.7876,131.7104,228.5200,0,U,57184,999,16293,.21259E-3,.4368E-4,0
SVYATOBOR 1 (RS60S),2023-091X,2026-06-10T10:32:02.610240,15.26498870,.0010904,97.5095,225.2188,114.6692,245.5683,0,U,57187,999,16328,.31231E-3,.8092E-4,0
VIZARD-METEO (RS38S),2023-091Z,2026-06-10T10:29:35.584224,15.35809158,.0008613,97.5096,230.7880,97.7678,262.4543,0,U,57189,999,16365,.4433E-3,.15392E-3,0
POLYTECH-UNIVERSE 3 (RS46S),2023-091AB,2026-06-10T11:44:32.809632,15.19048499,.0016449,97.5054,219.3200,148.2731,211.9498,0,U,57191,999,16293,.22159E-3,.4589E-4,0
UTMN 2 (RS27S),2023-091AP,2026-06-10T11:07:47.994816,15.31885195,.000947,97.5092,228.5923,103.7625,256.4671,0,U,57203,999,16351,.40838E-3,.12516E-3,0
